{"type": "FeatureCollection", "features": [{"type": "Feature", "properties": {"GID_2": "PHL.71.18_1", "GID_0": "PHL", "COUNTRY": "Philippines", "GID_1": "PHL.71_1", "NAME_1": "SouthernLeyte", "NL_NAME_1": "NA", "NAME_2": "Sogod", "VARNAME_2": "NA", "NL_NAME_2": "NA", "TYPE_2": "Bayan|Munisipyo", "ENGTYPE_2": "Municipality", "CC_2": "86417", "HASC_2": "PH.SL.SG"}, "geometry": {"type": "MultiPolygon", "coordinates": [[[[124.9811, 10.3822], [124.9704, 10.3777], [124.964, 10.3842], [124.9575, 10.3919], [124.9418, 10.4172], [124.9348, 10.4242], [124.9172, 10.4489], [124.9346, 10.5015], [124.9398, 10.5243], [124.9631, 10.5251], [124.9949, 10.5228], [125.053, 10.5239], [125.0585, 10.5144], [125.0713, 10.4718], [125.0752, 10.4484], [125.0748, 10.44], [125.0558, 10.4174], [125.0412, 10.3969], [125.0163, 10.3731], [125.0064, 10.3808], [124.9887, 10.3794], [124.9861, 10.3818], [124.9811, 10.3822]]]]}}]}